[{"OBJECT_NAME":"STARLINK-6129","OBJECT_ID":"2023-090R","EPOCH":"2026-03-09T13:33:09.294624","MEAN_MOTION":15.02533295,"ECCENTRICITY":0.00011496,"INCLINATION":43.0033,"RA_OF_ASC_NODE":275.4111,"ARG_OF_PERICENTER":271.2361,"MEAN_ANOMALY":88.835,"EPHEMERIS_TYPE":0,"CLASSIFICATION_TYPE":"U","NORAD_CAT_ID":57116,"ELEMENT_SET_NO":999,"REV_AT_EPOCH":15039,"BSTAR":-1.0672302e-5,"MEAN_MOTION_DOT":-3.48e-6,"MEAN_MOTION_DDOT":0},{"OBJECT_NAME":"QPS-SAR-10 (WADATSUMI-I)","OBJECT_ID":"2025-104A","EPOCH":"2026-03-09T22:18:19.817856","MEAN_MOTION":15.00816738,"ECCENTRICITY":0.00107055,"INCLINATION":42.0035,"RA_OF_ASC_NODE":106.051,"ARG_OF_PERICENTER":46.9104,"MEAN_ANOMALY":313.2617,"EPHEMERIS_TYPE":0,"CLASSIFICATION_TYPE":"U","NORAD_CAT_ID":64055,"ELEMENT_SET_NO":999,"REV_AT_EPOCH":4451,"BSTAR":0.00049051731,"MEAN_MOTION_DOT":6.161e-5,"MEAN_MOTION_DDOT":0}]
